KUIPER-00165            
1 65778U 25217S   25309.54907522  .00056058  00000+0  15146-2 0  9995
2 65778  51.8710 244.2352 0003478 196.0485 164.0392 15.37193855  6327
KUIPER-00166            
1 65779U 25217T   25309.54175335  .00056188  00000+0  15132-2 0  9994
2 65779  51.8734 244.1893 0002975 161.8372 198.2722 15.37293828  6326
KUIPER-00167            
1 65780U 25217U   25309.91668981 -.00974421  00000+0 -37901-1 0  9999
2 65780  51.8681 242.7425 0017998 102.6681 351.6189 15.27911632  5501
KUIPER-00168            
1 65781U 25217V   25309.97818038  .00046139  00000+0  12167-2 0  9998
2 65781  51.8733 241.8693 0003076 117.6548 242.4752 15.38030086  6395
KUIPER-00169            
1 65782U 25217W   25309.80373585  .00043734  00000+0  11795-2 0  9998
2 65782  51.8731 242.9467 0002314 161.0552 199.0521 15.37362140  6363
KUIPER-00170            
1 65783U 25217X   25309.82851486  .00050251  00000+0  14013-2 0  9990
2 65783  51.8690 243.0953 0005399 225.4974 134.5571 15.36252799  6365
KUIPER-00171            
1 65784U 25217Y   25309.91668981  .00304434  00000+0  48591-2 0  9990
2 65784  51.8644 241.6551 0005736 221.4526  47.5486 15.51571331  5020
KUIPER-00172            
1 65785U 25217Z   25309.79232877  .00046898  00000+0  12461-2 0  9992
2 65785  51.8731 242.8735 0003754 121.9139 238.2214 15.37788757  6369
KUIPER-00173            
1 65786U 25217AA  25309.53836211  .00052554  00000+0  14045-2 0  9993
2 65786  51.8724 244.1667 0002705 158.8363 201.2736 15.37562406  6320
KUIPER-00174            
1 65787U 25217AB  25309.98164141  .00047550  00000+0  12585-2 0  9996
2 65787  51.8724 241.8918 0002979 127.8337 232.2920 15.37904855  6398
KUIPER-00176            
1 65788U 25217AC  25309.92218955  .00060833  00000+0  16087-2 0  9994
2 65788  51.8718 242.2431 0002747 128.4584 231.6650 15.37823129  6387
KUIPER-00101            
1 65947U 25228A   25309.93625701  .00015964  00000+0  47416-3 0  9991
2 65947  51.8790 197.8803 0005638 216.0739 143.9867 15.34922423  4769
KUIPER-00113            
1 65948U 25228B   25309.93244240  .00016609  00000+0  48880-3 0  9990
2 65948  51.8792 197.8586 0006127 211.7885 148.2732 15.35178907  4768
KUIPER-00117            
1 65949U 25228C   25309.93308394  .00017694  00000+0  52069-3 0  9991
2 65949  51.8793 197.8636 0005957 212.2219 147.8404 15.35133614  4760
KUIPER-00121            
1 65950U 25228D   25309.94200538  .00018037  00000+0  54048-3 0  9996
2 65950  51.8806 197.9239 0005396 231.4666 128.5836 15.34551248  4764
KUIPER-00122            
1 65951U 25228E   25309.91668981 -.00005711  00000+0 -18600-3 0  9995
2 65951  51.8825 198.2005 0007197 245.3419 264.7629 15.29224563  3383
KUIPER-00123            
1 65952U 25228F   25309.91668981 -.00569360  00000+0 -21599-1 0  9990
2 65952  51.8825 198.1742 0005176 246.7588 257.4238 15.28433253  1681
KUIPER-00124            
1 65953U 25228G   25309.94458795  .00020126  00000+0  60513-3 0  9995
2 65953  51.8803 197.9381 0005341 241.5265 118.5183 15.34367108  4763
KUIPER-00125            
1 65954U 25228H   25309.93836802  .00017880  00000+0  53191-3 0  9991
2 65954  51.8790 197.8923 0005435 221.7443 138.3129 15.34785739  4766
KUIPER-00126            
1 65955U 25228J   25309.81268488 -.00219486  00000+0 -67474-2 0  9994
2 65955  51.8794 198.5515 0005684 235.7958 124.2489 15.34011017  4740
KUIPER-00127            
1 65956U 25228K   25309.93359863  .00039318  00000+0  11414-2 0  9991
2 65956  51.8793 197.8665 0005754 212.8681 147.1948 15.35104588  4768
KUIPER-00128            
1 65957U 25228L   25309.93686205  .00016662  00000+0  49495-3 0  9993
2 65957  51.8798 197.8907 0005541 217.5098 142.5502 15.34884632  4760
KUIPER-00129            
1 65958U 25228M   25309.93639946  .00020592  00000+0  60843-3 0  9991
2 65958  51.8796 197.8863 0005700 211.8846 148.1795 15.34900322  4766
KUIPER-00130            
1 65959U 25228N   25309.93976181  .00017716  00000+0  52846-3 0  9995
2 65959  51.8791 197.9013 0005081 228.3857 131.6694 15.34707722  4761
KUIPER-00134            
1 65960U 25228P   25309.94130260  .00018073  00000+0  54064-3 0  9999
2 65960  51.8790 197.9112 0005006 233.2329 126.8198 15.34604450  4767
KUIPER-00135            
1 65961U 25228Q   25309.94097071  .00015763  00000+0  47337-3 0  9990
2 65961  51.8803 197.9177 0004927 220.2802 139.7819 15.34587515  4762
KUIPER-00136            
1 65962U 25228R   25309.93477151  .00016684  00000+0  49424-3 0  9993
2 65962  51.8796 197.8762 0005767 214.1157 145.9459 15.34970490  4768
KUIPER-00137            
1 65963U 25228S   25309.94025817  .00017123  00000+0  51262-3 0  9995
2 65963  51.8803 197.9121 0004863 226.5827 133.4754 15.34619553  4765
KUIPER-00138            
1 65964U 25228T   25309.94299003  .00026863  00000+0  80319-3 0  9992
2 65964  51.8798 197.9240 0006068 240.5471 119.4910 15.34363695  4762
KUIPER-00140            
1 65965U 25228U   25309.94366624  .00018001  00000+0  54128-3 0  9991
2 65965  51.8802 197.9318 0005386 241.4039 118.6405 15.34441793  4763
KUIPER-00141            
1 65966U 25228V   25309.93742842  .00016313  00000+0  48550-3 0  9997
2 65966  51.8791 197.8864 0005555 218.3381 141.7210 15.34842265  4767
KUIPER-00146            
1 65967U 25228W   25309.93793382  .00018421  00000+0  54714-3 0  9994
2 65967  51.8802 197.8978 0005519 220.3542 139.7035 15.34813583  4762
KUIPER-00149            
1 65968U 25228X   25309.93520330  .00016419  00000+0  48629-3 0  9999
2 65968  51.8792 197.8744 0005450 216.7203 143.3410 15.34990344  4768
KUIPER-00154            
1 65969U 25228Y   25309.93417779  .00021852  00000+0  64161-3 0  9998
2 65969  51.8792 197.8677 0005682 214.1557 145.9064 15.35061209  4768
KUIPER-00157            
1 65970U 25228Z   25309.94134074  .00017483  00000+0  52328-3 0  9992
2 65970  51.8804 197.9194 0005619 232.6729 127.3745 15.34608188  4767
